STARLINK-33908          
1 63700U 25087D   25343.11855056  .00038832  00000+0  13165-2 0  9997
2 63700  53.1591 280.1907 0001168  80.6111 279.5021 15.30197703 35338
STARLINK-33950          
1 63701U 25087E   25343.07223152  .00032876  00000+0  11166-2 0  9990
2 63701  53.1619 280.6143 0001165 100.0188 260.0945 15.30218469 35327
STARLINK-33939          
1 63702U 25087F   25343.06906428  .00030992  00000+0  10540-2 0  9996
2 63702  53.1591 280.5956 0000830 112.5647 247.5442 15.30205948 35324
STARLINK-33868          
1 63703U 25087G   25343.12277089  .00025856  00000+0  88196-3 0  9994
2 63703  53.1590 280.2156 0001037  88.5733 271.5387 15.30203924 35339
STARLINK-33937          
1 63704U 25087H   25343.09849993  .00028656  00000+0  97548-3 0  9992
2 63704  53.1601 280.0648 0001065  83.9783 276.1339 15.30214075 35339
STARLINK-33848          
1 63705U 25087J   25343.11011027  .00033131  00000+0  11253-2 0  9997
2 63705  53.1596 280.1362 0001101  85.8208 274.2918 15.30213759 35320
STARLINK-33995          
1 63706U 25087K   25343.15231708  .00043080  00000+0  14571-2 0  9992
2 63706  53.1607 280.3994 0000982 109.7940 250.3166 15.30224326 35335
STARLINK-33982          
1 63707U 25087L   25343.11643809  .00029643  00000+0  10090-2 0  9999
2 63707  53.1598 280.1718 0000938  86.4636 273.6472 15.30200566 35339
STARLINK-33915          
1 63708U 25087M   25343.12804840  .00053069  00000+0  17909-2 0  9990
2 63708  53.1599 280.2501 0001155  90.1533 269.9600 15.30204463 35333
STARLINK-33862          
1 63709U 25087N   25343.12171551  .00053334  00000+0  17997-2 0  9999
2 63709  53.1589 280.2111 0001168  95.7384 264.3750 15.30204158 35335
STARLINK-33920          
1 63710U 25087P   25343.14493233  .00043016  00000+0  14555-2 0  9990
2 63710  53.1599 280.3568 0001242  90.1436 269.9707 15.30214233 35333
STARLINK-33580          
1 63711U 25087Q   25343.15442885  .00025023  00000+0  85385-3 0  9997
2 63711  53.1611 280.4147 0001139  92.1776 267.9356 15.30211404 35332
STARLINK-33783          
1 63712U 25087R   25343.14282007  .00029354  00000+0  99926-3 0  9992
2 63712  53.1591 280.3406 0001141 101.6597 258.4531 15.30201473 35332
STARLINK-33773          
1 63713U 25087S   25343.10797541  .00042931  00000+0  14526-2 0  9991
2 63713  53.1608 280.1213 0001168  57.7693 302.3421 15.30214870 35335
STARLINK-33745          
1 63714U 25087T   25343.10483206  .00037559  00000+0  12732-2 0  9999
2 63714  53.1602 280.1027 0001312  80.2130 279.9019 15.30215478 35338
STARLINK-33728          
1 63715U 25087U   25343.11221391  .00051359  00000+0  17359-2 0  9990
2 63715  53.1603 280.1455 0001260  90.7420 269.3725 15.30169083 35332
