[{"OBJECT_NAME":"STARLINK-33908","OBJECT_ID":"2025-087D","EPOCH":"2025-12-09T02:50:42.768384","MEAN_MOTION":15.30197703,"ECCENTRICITY":0.0001168,"INCLINATION":53.1591,"RA_OF_ASC_NODE":280.1907,"ARG_OF_PERICENTER":80.6111,"MEAN_ANOMALY":279.5021,"EPHEMERIS_TYPE":0,"CLASSIFICATION_TYPE":"U","NORAD_CAT_ID":63700,"ELEMENT_SET_NO":999,"REV_AT_EPOCH":3533,"BSTAR":0.0013165,"MEAN_MOTION_DOT":0.00038832,"MEAN_MOTION_DDOT":0},{"OBJECT_NAME":"STARLINK-33950","OBJECT_ID":"2025-087E","EPOCH":"2025-12-09T01:44:00.803328","MEAN_MOTION":15.30218469,"ECCENTRICITY":0.0001165,"INCLINATION":53.1619,"RA_OF_ASC_NODE":280.6143,"ARG_OF_PERICENTER":100.0188,"MEAN_ANOMALY":260.0945,"EPHEMERIS_TYPE":0,"CLASSIFICATION_TYPE":"U","NORAD_CAT_ID":63701,"ELEMENT_SET_NO":999,"REV_AT_EPOCH":3532,"BSTAR":0.0011166,"MEAN_MOTION_DOT":0.00032876,"MEAN_MOTION_DDOT":0},{"OBJECT_NAME":"STARLINK-33939","OBJECT_ID":"2025-087F","EPOCH":"2025-12-09T01:39:27.153792","MEAN_MOTION":15.30205948,"ECCENTRICITY":8.3e-5,"INCLINATION":53.1591,"RA_OF_ASC_NODE":280.5956,"ARG_OF_PERICENTER":112.5647,"MEAN_ANOMALY":247.5442,"EPHEMERIS_TYPE":0,"CLASSIFICATION_TYPE":"U","NORAD_CAT_ID":63702,"ELEMENT_SET_NO":999,"REV_AT_EPOCH":3532,"BSTAR":0.001054,"MEAN_MOTION_DOT":0.00030992,"MEAN_MOTION_DDOT":0},{"OBJECT_NAME":"STARLINK-33868","OBJECT_ID":"2025-087G","EPOCH":"2025-12-09T02:56:47.404896","MEAN_MOTION":15.30203924,"ECCENTRICITY":0.0001037,"INCLINATION":53.159,"RA_OF_ASC_NODE":280.2156,"ARG_OF_PERICENTER":88.5733,"MEAN_ANOMALY":271.5387,"EPHEMERIS_TYPE":0,"CLASSIFICATION_TYPE":"U","NORAD_CAT_ID":63703,"ELEMENT_SET_NO":999,"REV_AT_EPOCH":3533,"BSTAR":0.00088196,"MEAN_MOTION_DOT":0.00025856,"MEAN_MOTION_DDOT":0},{"OBJECT_NAME":"STARLINK-33937","OBJECT_ID":"2025-087H","EPOCH":"2025-12-09T02:21:50.393952","MEAN_MOTION":15.30214075,"ECCENTRICITY":0.0001065,"INCLINATION":53.1601,"RA_OF_ASC_NODE":280.0648,"ARG_OF_PERICENTER":83.9783,"MEAN_ANOMALY":276.1339,"EPHEMERIS_TYPE":0,"CLASSIFICATION_TYPE":"U","NORAD_CAT_ID":63704,"ELEMENT_SET_NO":999,"REV_AT_EPOCH":3533,"BSTAR":0.00097548,"MEAN_MOTION_DOT":0.00028656,"MEAN_MOTION_DDOT":0},{"OBJECT_NAME":"STARLINK-33848","OBJECT_ID":"2025-087J","EPOCH":"2025-12-09T02:38:33.527328","MEAN_MOTION":15.30213759,"ECCENTRICITY":0.0001101,"INCLINATION":53.1596,"RA_OF_ASC_NODE":280.1362,"ARG_OF_PERICENTER":85.8208,"MEAN_ANOMALY":274.2918,"EPHEMERIS_TYPE":0,"CLASSIFICATION_TYPE":"U","NORAD_CAT_ID":63705,"ELEMENT_SET_NO":999,"REV_AT_EPOCH":3532,"BSTAR":0.0011253,"MEAN_MOTION_DOT":0.00033131,"MEAN_MOTION_DDOT":0},{"OBJECT_NAME":"STARLINK-33995","OBJECT_ID":"2025-087K","EPOCH":"2025-12-09T03:39:20.195712","MEAN_MOTION":15.30224326,"ECCENTRICITY":9.82e-5,"INCLINATION":53.1607,"RA_OF_ASC_NODE":280.3994,"ARG_OF_PERICENTER":109.794,"MEAN_ANOMALY":250.3166,"EPHEMERIS_TYPE":0,"CLASSIFICATION_TYPE":"U","NORAD_CAT_ID":63706,"ELEMENT_SET_NO":999,"REV_AT_EPOCH":3533,"BSTAR":0.0014571,"MEAN_MOTION_DOT":0.0004308,"MEAN_MOTION_DDOT":0},{"OBJECT_NAME":"STARLINK-33982","OBJECT_ID":"2025-087L","EPOCH":"2025-12-09T02:47:40.250976","MEAN_MOTION":15.30200566,"ECCENTRICITY":9.38e-5,"INCLINATION":53.1598,"RA_OF_ASC_NODE":280.1718,"ARG_OF_PERICENTER":86.4636,"MEAN_ANOMALY":273.6472,"EPHEMERIS_TYPE":0,"CLASSIFICATION_TYPE":"U","NORAD_CAT_ID":63707,"ELEMENT_SET_NO":999,"REV_AT_EPOCH":3533,"BSTAR":0.001009,"MEAN_MOTION_DOT":0.00029643,"MEAN_MOTION_DDOT":0},{"OBJECT_NAME":"STARLINK-33915","OBJECT_ID":"2025-087M","EPOCH":"2025-12-09T03:04:23.381760","MEAN_MOTION":15.30204463,"ECCENTRICITY":0.0001155,"INCLINATION":53.1599,"RA_OF_ASC_NODE":280.2501,"ARG_OF_PERICENTER":90.1533,"MEAN_ANOMALY":269.96,"EPHEMERIS_TYPE":0,"CLASSIFICATION_TYPE":"U","NORAD_CAT_ID":63708,"ELEMENT_SET_NO":999,"REV_AT_EPOCH":3533,"BSTAR":0.0017909,"MEAN_MOTION_DOT":0.00053069,"MEAN_MOTION_DDOT":0},{"OBJECT_NAME":"STARLINK-33862","OBJECT_ID":"2025-087N","EPOCH":"2025-12-09T02:55:16.220064","MEAN_MOTION":15.30204158,"ECCENTRICITY":0.0001168,"INCLINATION":53.1589,"RA_OF_ASC_NODE":280.2111,"ARG_OF_PERICENTER":95.7384,"MEAN_ANOMALY":264.375,"EPHEMERIS_TYPE":0,"CLASSIFICATION_TYPE":"U","NORAD_CAT_ID":63709,"ELEMENT_SET_NO":999,"REV_AT_EPOCH":3533,"BSTAR":0.0017997,"MEAN_MOTION_DOT":0.00053334,"MEAN_MOTION_DDOT":0},{"OBJECT_NAME":"STARLINK-33920","OBJECT_ID":"2025-087P","EPOCH":"2025-12-09T03:28:42.153312","MEAN_MOTION":15.30214233,"ECCENTRICITY":0.0001242,"INCLINATION":53.1599,"RA_OF_ASC_NODE":280.3568,"ARG_OF_PERICENTER":90.1436,"MEAN_ANOMALY":269.9707,"EPHEMERIS_TYPE":0,"CLASSIFICATION_TYPE":"U","NORAD_CAT_ID":63710,"ELEMENT_SET_NO":999,"REV_AT_EPOCH":3533,"BSTAR":0.0014555,"MEAN_MOTION_DOT":0.00043016,"MEAN_MOTION_DDOT":0},{"OBJECT_NAME":"STARLINK-33580","OBJECT_ID":"2025-087Q","EPOCH":"2025-12-09T03:42:22.652640","MEAN_MOTION":15.30211404,"ECCENTRICITY":0.0001139,"INCLINATION":53.1611,"RA_OF_ASC_NODE":280.4147,"ARG_OF_PERICENTER":92.1776,"MEAN_ANOMALY":267.9356,"EPHEMERIS_TYPE":0,"CLASSIFICATION_TYPE":"U","NORAD_CAT_ID":63711,"ELEMENT_SET_NO":999,"REV_AT_EPOCH":3533,"BSTAR":0.00085385,"MEAN_MOTION_DOT":0.00025023,"MEAN_MOTION_DDOT":0},{"OBJECT_NAME":"STARLINK-33783","OBJECT_ID":"2025-087R","EPOCH":"2025-12-09T03:25:39.654048","MEAN_MOTION":15.30201473,"ECCENTRICITY":0.0001141,"INCLINATION":53.1591,"RA_OF_ASC_NODE":280.3406,"ARG_OF_PERICENTER":101.6597,"MEAN_ANOMALY":258.4531,"EPHEMERIS_TYPE":0,"CLASSIFICATION_TYPE":"U","NORAD_CAT_ID":63712,"ELEMENT_SET_NO":999,"REV_AT_EPOCH":3533,"BSTAR":0.00099926,"MEAN_MOTION_DOT":0.00029354,"MEAN_MOTION_DDOT":0},{"OBJECT_NAME":"STARLINK-33773","OBJECT_ID":"2025-087S","EPOCH":"2025-12-09T02:35:29.075424","MEAN_MOTION":15.3021487,"ECCENTRICITY":0.0001168,"INCLINATION":53.1608,"RA_OF_ASC_NODE":280.1213,"ARG_OF_PERICENTER":57.7693,"MEAN_ANOMALY":302.3421,"EPHEMERIS_TYPE":0,"CLASSIFICATION_TYPE":"U","NORAD_CAT_ID":63713,"ELEMENT_SET_NO":999,"REV_AT_EPOCH":3533,"BSTAR":0.0014526,"MEAN_MOTION_DOT":0.00042931,"MEAN_MOTION_DDOT":0},{"OBJECT_NAME":"STARLINK-33745","OBJECT_ID":"2025-087T","EPOCH":"2025-12-09T02:30:57.489984","MEAN_MOTION":15.30215478,"ECCENTRICITY":0.0001312,"INCLINATION":53.1602,"RA_OF_ASC_NODE":280.1027,"ARG_OF_PERICENTER":80.213,"MEAN_ANOMALY":279.9019,"EPHEMERIS_TYPE":0,"CLASSIFICATION_TYPE":"U","NORAD_CAT_ID":63714,"ELEMENT_SET_NO":999,"REV_AT_EPOCH":3533,"BSTAR":0.0012732,"MEAN_MOTION_DOT":0.00037559,"MEAN_MOTION_DDOT":0},{"OBJECT_NAME":"STARLINK-33728","OBJECT_ID":"2025-087U","EPOCH":"2025-12-09T02:41:35.281824","MEAN_MOTION":15.30169083,"ECCENTRICITY":0.000126,"INCLINATION":53.1603,"RA_OF_ASC_NODE":280.1455,"ARG_OF_PERICENTER":90.742,"MEAN_ANOMALY":269.3725,"EPHEMERIS_TYPE":0,"CLASSIFICATION_TYPE":"U","NORAD_CAT_ID":63715,"ELEMENT_SET_NO":999,"REV_AT_EPOCH":3533,"BSTAR":0.0017359,"MEAN_MOTION_DOT":0.00051359,"MEAN_MOTION_DDOT":0}]
